NORAD_CAT_ID,OBJECT_NAME,OBJECT_TYPE,EPOCH,MEAN_MOTION,ECCENTRICITY,INCLINATION,RA_OF_ASC_NODE,ARG_OF_PERICENTER,MEAN_ANOMALY,BSTAR,MEAN_MOTION_DOT,MEAN_MOTION_DDOT,TLE_LINE0,TLE_LINE1,TLE_LINE2,SEMIMAJOR_AXIS,PERIOD,APOGEE,PERIGEE,DECAYED
52287.0,STARLINK-3822,PAYLOAD,2023-08-02 18:29:24,15.08845004,0.0001018,53.2161,53.4716,87.9094,272.2015,0.00017086,2.433e-05,0.0,0 STARLINK-3822,1 52287U 22041AC  23214.77041948  .00002433  00000-0  17086-3 0  9992,2 52287  53.2161  53.4716 0001018  87.9094 272.2015 15.08845004 72189,6917.865,95.437,540.434,539.026,0.0
52287.0,STARLINK-3822,PAYLOAD,2023-08-03 18:20:11,15.08842425,0.0001047,53.2167,49.0098,98.5532,261.5578,2.2673e-05,7.3e-07,0.0,0 STARLINK-3822,1 52287U 22041AC  23215.76401845  .00000073  00000-0  22673-4 0  9995,2 52287  53.2167  49.0098 0001047  98.5532 261.5578 15.08842425 72332,6917.873,95.437,540.462,539.014,0.0
52287.0,STARLINK-3822,PAYLOAD,2023-08-04 21:21:44,15.0883968,0.0001017,53.2175,43.9551,102.2197,257.8909,5.7249e-05,6.23e-06,0.0,0 STARLINK-3822,1 52287U 22041AC  23216.89010189  .00000623  00000-0  57249-4 0  9995,2 52287  53.2175  43.9551 0001017 102.2197 257.8909 15.08839680 72509,6917.881,95.438,540.45,539.043,0.0
52287.0,STARLINK-3822,PAYLOAD,2023-08-05 18:01:44,15.08858301,0.0001057,53.2171,40.0919,117.5209,242.5891,3.7324e-05,3.07e-06,0.0,0 STARLINK-3822,1 52287U 22041AC  23217.75121136  .00000307  00000-0  37324-4 0  9997,2 52287  53.2171  40.0919 0001057 117.5209 242.5891 15.08858301 72634,6917.824,95.436,540.421,538.958,0.0
52287.0,STARLINK-3822,PAYLOAD,2023-08-05 19:37:08,15.08841678,0.0001069,53.2175,39.7937,103.4686,256.6425,0.00043095,6.578e-05,0.0,0 STARLINK-3822,1 52287U 22041AC  23217.81745381  .00006578  00000-0  43095-3 0  9995,2 52287  53.2175  39.7937 0001069 103.4686 256.6425 15.08841678 72648,6917.875,95.437,540.48,539.001,0.0
52287.0,STARLINK-3822,PAYLOAD,2023-08-06 11:31:00,15.08832672,0.0001204,53.2165,36.8214,76.3828,283.7299,-3.3879e-05,-8.27e-06,0.0,0 STARLINK-3822,1 52287U 22041AC  23218.47986642 -.00000827  00000-0 -33879-4 0  9998,2 52287  53.2165  36.8214 0001204  76.3828 283.7299 15.08832672 72745,6917.903,95.438,540.601,538.935,0.0
52287.0,STARLINK-3822,PAYLOAD,2023-08-06 19:27:56,15.0881904,8.96e-05,53.2169,35.3332,81.0387,279.0707,-0.00019368,-3.367e-05,0.0,0 STARLINK-3822,1 52287U 22041AC  23218.81107587 -.00003367  00000-0 -19368-3 0  9997,2 52287  53.2169  35.3332 0000896  81.0387 279.0707 15.08819040 72794,6917.944,95.439,540.429,539.19,0.0
52287.0,STARLINK-3822,PAYLOAD,2023-08-07 11:21:48,15.08825006,7.32e-05,53.2168,32.3579,89.164,270.9435,-5.6741e-05,-1.19e-05,0.0,0 STARLINK-3822,1 52287U 22041AC  23219.47347905 -.00001190  00000-0 -56741-4 0  9999,2 52287  53.2168  32.3579 0000732  89.1640 270.9435 15.08825006 72891,6917.926,95.439,540.298,539.285,0.0
52287.0,STARLINK-3822,PAYLOAD,2023-08-07 17:43:21,15.08833134,8.66e-05,53.2167,31.1701,65.667,294.4413,0.00039725,6.039e-05,0.0,0 STARLINK-3822,1 52287U 22041AC  23219.73844054  .00006039  00000-0  39725-3 0  9992,2 52287  53.2167  31.1701 0000866  65.6670 294.4413 15.08833134 72937,6917.901,95.438,540.365,539.167,0.0
52287.0,STARLINK-3822,PAYLOAD,2023-08-08 11:12:35,15.08865808,9.87e-05,53.2167,27.8996,59.5362,300.5728,0.0011938,0.00018776,0.0,0 STARLINK-3822,1 52287U 22041AC  23220.46707701  .00018776  00000-0  11938-2 0  9997,2 52287  53.2167  27.8996 0000987  59.5362 300.5728 15.08865808 73043,6917.802,95.436,540.349,538.984,0.0
52287.0,STARLINK-3822,PAYLOAD,2023-08-08 17:34:07,15.08900164,8.26e-05,53.2167,26.7099,43.2258,316.8798,0.0021895,0.00034788,0.0,0 STARLINK-3822,1 52287U 22041AC  23220.73202713  .00034788  00000-0  21895-2 0  9994,2 52287  53.2167  26.7099 0000826  43.2258 316.8798 15.08900164 73087,6917.696,95.434,540.133,538.99,0.0
52287.0,STARLINK-3822,PAYLOAD,2023-08-08 20:44:52,15.08918515,0.0001354,53.2177,26.1149,59.163,300.9495,0.0023663,0.00037654,0.0,0 STARLINK-3822,1 52287U 22041AC  23220.86449722  .00037654  00000-0  23663-2 0  9991,2 52287  53.2177  26.1149 0001354  59.1630 300.9495 15.08918515 73105,6917.64,95.433,540.442,538.569,0.0
52287.0,STARLINK-3822,PAYLOAD,2023-08-09 09:27:57,15.08844757,0.0001109,53.2168,23.7365,78.263,281.8486,-0.0010519,-0.00016992,0.0,0 STARLINK-3822,1 52287U 22041AC  23221.39441780 -.00016992  00000-0 -10519-2 0  9996,2 52287  53.2168  23.7365 0001109  78.2630 281.8486 15.08844757 73189,6917.866,95.437,540.498,538.964,0.0
52287.0,STARLINK-3822,PAYLOAD,2023-08-10 10:54:08,15.08834828,0.0001071,53.2175,18.9777,87.4469,272.6646,0.0009575,0.00014981,0.0,0 STARLINK-3822,1 52287U 22041AC  23222.45426903  .00014981  00000-0  95750-3 0  9999,2 52287  53.2175  18.9777 0001071  87.4469 272.6646 15.08834828 73342,6917.896,95.438,540.502,539.02,0.0
52287.0,STARLINK-3822,PAYLOAD,2023-08-11 10:44:55,15.0884623,0.0001636,53.2177,14.5183,89.885,270.2329,0.00048061,7.37e-05,0.0,0 STARLINK-3822,1 52287U 22041AC  23223.44786965  .00007370  00000-0  48061-3 0  9993,2 52287  53.2177  14.5183 0001636  89.8850 270.2329 15.08846230 73492,6917.861,95.437,540.858,538.595,0.0
52287.0,STARLINK-3822,PAYLOAD,2023-08-12 10:35:42,15.08845845,0.000106,53.2174,10.0569,82.5045,277.6068,0.00063438,9.824e-05,0.0,0 STARLINK-3822,1 52287U 22041AC  23224.44146915  .00009824  00000-0  63438-3 0  9990,2 52287  53.2174  10.0569 0001060  82.5045 277.6068 15.08845845 73644,6917.863,95.437,540.461,538.994,0.0
52287.0,STARLINK-3822,PAYLOAD,2023-08-13 02:29:34,15.0883526,9.91e-05,53.2168,7.0839,85.8141,274.2964,1.8918e-06,-2.58e-06,0.0,0 STARLINK-3822,1 52287U 22041AC  23225.10387074 -.00000258  00000-0  18918-5 0  9995,2 52287  53.2168   7.0839 0000991  85.8141 274.2964 15.08835260 73747,6917.895,95.438,540.445,539.074,0.0
52287.0,STARLINK-3822,PAYLOAD,2023-08-15 02:11:08,15.08846754,8.95e-05,53.2175,358.1643,79.599,280.5103,0.00022106,3.233e-05,0.0,0 STARLINK-3822,1 52287U 22041AC  23227.09107139  .00003233  00000-0  22106-3 0  9994,2 52287  53.2175 358.1643 0000895  79.5990 280.5103 15.08846754 74042,6917.86,95.437,540.344,539.106,0.0
52287.0,STARLINK-3822,PAYLOAD,2023-08-16 02:01:55,15.08846924,4.22e-05,53.2177,353.7009,110.8072,249.2965,0.00011609,1.561e-05,0.0,0 STARLINK-3822,1 52287U 22041AC  23228.08466858  .00001561  00000-0  11609-3 0  9998,2 52287  53.2177 353.7009 0000422 110.8072 249.2965 15.08846924 74190,6917.859,95.437,540.016,539.432,0.0
52287.0,STARLINK-3822,PAYLOAD,2023-08-16 08:23:28,15.08841841,0.0001506,53.217,352.5129,85.6125,274.504,0.0001429,1.987e-05,0.0,0 STARLINK-3822,1 52287U 22041AC  23228.34963623  .00001987  00000-0  14290-3 0  9990,2 52287  53.2170 352.5129 0001506  85.6125 274.5040 15.08841841 74238,6917.875,95.437,540.782,538.698,0.0
52287.0,STARLINK-3822,PAYLOAD,2023-08-17 11:25:01,15.08841366,0.000123,53.2172,347.459,88.2279,271.8854,8.1177e-05,1.004e-05,0.0,0 STARLINK-3822,1 52287U 22041AC  23229.47571388  .00001004  00000-0  81177-4 0  9997,2 52287  53.2172 347.4590 0001230  88.2279 271.8854 15.08841366 74402,6917.876,95.437,540.592,538.89,0.0
52287.0,STARLINK-3822,PAYLOAD,2023-08-18 09:40:26,15.08830182,0.0001191,53.2178,343.2965,88.2855,271.8274,7.4614e-06,-1.69e-06,0.0,0 STARLINK-3822,1 52287U 22041AC  23230.40308282 -.00000169  00000-0  74614-5 0  9994,2 52287  53.2178 343.2965 0001191  88.2855 271.8274 15.08830182 74549,6917.91,95.438,540.599,538.951,0.0
52287.0,STARLINK-3822,PAYLOAD,2023-08-18 14:26:35,15.08836187,0.0001109,53.2181,342.4039,94.5604,265.5515,8.0872e-05,9.99e-06,0.0,0 STARLINK-3822,1 52287U 22041AC  23230.60179682  .00000999  00000-0  80872-4 0  9998,2 52287  53.2181 342.4039 0001109  94.5604 265.5515 15.08836187 74579,6917.892,95.438,540.524,538.99,0.0
52287.0,STARLINK-3822,PAYLOAD,2023-08-19 14:17:21,15.08844326,0.0001266,53.2181,337.9443,96.8158,263.2978,0.00011429,1.532e-05,0.0,0 STARLINK-3822,1 52287U 22041AC  23231.59539294  .00001532  00000-0  11429-3 0  9991,2 52287  53.2181 337.9443 0001266  96.8158 263.2978 15.08844326 74729,6917.867,95.437,540.608,538.856,0.0
52287.0,STARLINK-3822,PAYLOAD,2023-08-20 12:32:46,15.08832027,0.0001121,53.2182,333.7813,91.3359,268.7762,9.7649e-05,1.266e-05,0.0,0 STARLINK-3822,1 52287U 22041AC  23232.52276391  .00001266  00000-0  97649-4 0  9994,2 52287  53.2182 333.7813 0001121  91.3359 268.7762 15.08832027 74869,6917.905,95.438,540.545,538.994,0.0
52287.0,STARLINK-3822,PAYLOAD,2023-08-21 12:23:32,15.08866149,0.0001095,53.2184,329.3212,86.6048,273.5069,-0.00027174,-4.613e-05,0.0,0 STARLINK-3822,1 52287U 22041AC  23233.51635334 -.00004613  00000-0 -27174-3 0  9996,2 52287  53.2184 329.3212 0001095  86.6048 273.5069 15.08866149 75011,6917.8,95.436,540.423,538.908,0.0
52287.0,STARLINK-3822,PAYLOAD,2023-08-21 13:58:56,15.0884696,0.0001226,53.2185,329.0227,91.0762,269.037,9.2983e-05,1.193e-05,0.0,0 STARLINK-3822,1 52287U 22041AC  23233.58259642  .00001193  00000-0  92983-4 0  9996,2 52287  53.2185 329.0227 0001226  91.0762 269.0370 15.08846960 75029,6917.859,95.437,540.572,538.876,0.0
52287.0,STARLINK-3822,PAYLOAD,2023-08-22 12:14:21,15.08835762,0.0001401,53.2186,324.8603,78.2249,281.89,7.4898e-05,9.04e-06,0.0,0 STARLINK-3822,1 52287U 22041AC  23234.50996777  .00000904  00000-0  74898-4 0  9990,2 52287  53.2186 324.8603 0001401  78.2249 281.8900 15.08835762 75167,6917.893,95.438,540.728,538.789,0.0
52287.0,STARLINK-3822,PAYLOAD,2023-08-23 12:05:07,15.08849912,0.0001357,53.2181,320.4003,75.3128,284.8015,0.0001163,1.564e-05,0.0,0 STARLINK-3822,1 52287U 22041AC  23235.50355738  .00001564  00000-0  11630-3 0  9994,2 52287  53.2181 320.4003 0001357  75.3128 284.8015 15.08849912 75311,6917.85,95.437,540.654,538.776,0.0
52287.0,STARLINK-3822,PAYLOAD,2023-08-24 11:55:54,15.08839629,0.0001366,53.2175,315.9399,81.9162,278.1985,7.4431e-05,8.97e-06,0.0,0 STARLINK-3822,1 52287U 22041AC  23236.49716323  .00000897  00000-0  74431-4 0  9991,2 52287  53.2175 315.9399 0001366  81.9162 278.1985 15.08839629 75464,6917.882,95.438,540.692,538.802,0.0
